NORAD_CAT_ID,OBJECT_NAME,OBJECT_TYPE,EPOCH,MEAN_MOTION,ECCENTRICITY,INCLINATION,RA_OF_ASC_NODE,ARG_OF_PERICENTER,MEAN_ANOMALY,BSTAR,MEAN_MOTION_DOT,MEAN_MOTION_DDOT,TLE_LINE0,TLE_LINE1,TLE_LINE2,SEMIMAJOR_AXIS,PERIOD,APOGEE,PERIGEE,DECAYED
53579.0,STARLINK-4580,PAYLOAD,2022-11-09 14:00:01,15.26469609,0.0001148,53.2169,113.463,72.7954,294.1965,-0.049071,-0.01193261,0.0,0 STARLINK-4580,1 53579U 22101BE  22313.58334491 -.01193261  00000-0 -49071-1 0  9990,2 53579  53.2169 113.4630 0001148  72.7954 294.1965 15.26469609  1301,6864.513000000001,94.335,487.166,485.59,0.0
53579.0,STARLINK-4580,PAYLOAD,2022-11-10 00:00:00,15.25424307,0.0001431,53.2168,111.5439,58.9585,78.1995,-0.048886,-0.01154858,0.0,0 STARLINK-4580,1 53579U 22101BE  22314.00001157 -.01154858  00000-0 -48886-1 0  9990,2 53579  53.2168 111.5439 0001431  58.9585  78.1995 15.25424307  1305,6867.649,94.4,490.496,488.531,0.0
53579.0,STARLINK-4580,PAYLOAD,2022-11-10 06:00:00,15.24809298,0.0001295,53.2174,110.3916,59.3066,11.2125,-0.049501,-0.01148374,0.0,0 STARLINK-4580,1 53579U 22101BE  22314.25001157 -.01148374  00000-0 -49501-1 0  9998,2 53579  53.2174 110.3916 0001295  59.3066  11.2125 15.24809298 12957,6869.495,94.438,492.25,490.471,0.0
53579.0,STARLINK-4580,PAYLOAD,2022-11-10 14:00:01,15.24024468,0.0001377,53.2168,108.8595,65.3391,35.4539,-0.052614,-0.01188718,0.0,0 STARLINK-4580,1 53579U 22101BE  22314.58334491 -.01188718  00000-0 -52614-1 0  9999,2 53579  53.2168 108.8595 0001377  65.3391  35.4539 15.24024468  1306,6871.853,94.487,494.665,492.772,0.0
53579.0,STARLINK-4580,PAYLOAD,2022-11-10 22:00:00,15.23196009,0.0001578,53.2168,107.3303,53.9512,76.1581,-0.052865,-0.01166996,0.0,0 STARLINK-4580,1 53579U 22101BE  22314.91667824 -.01166996  00000-0 -52865-1 0  9997,2 53579  53.2168 107.3303 0001578  53.9512  76.1581 15.23196009 13052,6874.345,94.538,497.295,495.125,0.0
53579.0,STARLINK-4580,PAYLOAD,2022-11-11 14:00:01,15.21577592,0.0001544,53.217,104.2731,64.1104,121.6829,-0.056139,-0.01179982,0.0,0 STARLINK-4580,1 53579U 22101BE  22315.58334491 -.01179982  00000-0 -56139-1 0  9999,2 53579  53.2170 104.2731 0001544  64.1104 121.6829 15.21577592  1304,6879.219,94.639,502.146,500.021,0.0
53579.0,STARLINK-4580,PAYLOAD,2022-11-11 22:00:00,15.20754213,0.0001585999999999,53.2168,102.7495,59.0746,153.099,-0.056756,-0.01165541,0.0,0 STARLINK-4580,1 53579U 22101BE  22315.91667824 -.01165541  00000-0 -56756-1 0  9996,2 53579  53.2168 102.7495 0001586  59.0746 153.0990 15.20754213 13208,6881.701,94.69,504.658,502.475,0.0
53579.0,STARLINK-4580,PAYLOAD,2022-11-12 14:00:01,15.19115928,0.0001448,53.2171,99.7039,71.1433,190.8569,-0.058733,-0.01150821,0.0,0 STARLINK-4580,1 53579U 22101BE  22316.58334491 -.01150821  00000-0 -58733-1 0  9993,2 53579  53.2171  99.7039 0001448  71.1433 190.8569 15.19115928  1307,6886.648,94.792,509.51,507.516,0.0
53579.0,STARLINK-4580,PAYLOAD,2022-11-12 22:00:00,15.18339485,0.000143,53.2167,98.1859,49.6441,235.7796,-0.062939,-0.01201295,0.0,0 STARLINK-4580,1 53579U 22101BE  22316.91667824 -.01201295  00000-0 -62939-1 0  9994,2 53579  53.2167  98.1859 0001430  49.6441 235.7796 15.18339485 13359,6888.996,94.84,511.846,509.876,0.0
53579.0,STARLINK-4580,PAYLOAD,2022-11-13 00:00:00,15.18102835,0.0001477,53.2169,97.8056,44.4468,336.7034,-0.060917,-0.01158353,0.0,0 STARLINK-4580,1 53579U 22101BE  22317.00001157 -.01158353  00000-0 -60917-1 0  9996,2 53579  53.2169  97.8056 0001477  44.4468 336.7034 15.18102835  1305,6889.712,94.855,512.594,510.559,0.0
53579.0,STARLINK-4580,PAYLOAD,2022-11-13 14:00:01,15.16688608,0.0001343,53.2172,95.1518,69.4076,259.9816,-0.064096,-0.01169103,0.0,0 STARLINK-4580,1 53579U 22101BE  22317.58334491 -.01169103  00000-0 -64096-1 0  9996,2 53579  53.2172  95.1518 0001343  69.4076 259.9816 15.16688608 13466,6893.994000000002,94.944,516.785,514.933,0.0
53579.0,STARLINK-4580,PAYLOAD,2022-11-13 22:00:00,15.15898803,0.0001478,53.2168,93.6392,45.9921,303.8948,-0.067593,-0.01202376,0.0,0 STARLINK-4580,1 53579U 22101BE  22317.91667824 -.01202376  00000-0 -67593-1 0  9997,2 53579  53.2168  93.6392 0001478  45.9921 303.8948 15.15898803  1305,6896.388000000001,94.993,519.273,517.234,0.0
53579.0,STARLINK-4580,PAYLOAD,2022-11-14 14:00:01,15.14230992,0.0001529,53.2174,90.6169,47.0458,340.9478,-0.067381,-0.01147555,0.0,0 STARLINK-4580,1 53579U 22101BE  22318.58334491 -.01147555  00000-0 -67381-1 0  9994,2 53579  53.2174  90.6169 0001529  47.0458 340.9478 15.14230992  1304,6901.451,95.098,524.371,522.261,0.0
53579.0,STARLINK-4580,PAYLOAD,2022-11-14 22:00:00,15.1341733,0.0001561999999999,53.2171,89.1093,44.3547,1.2149,-0.068936,-0.01147338,0.0,0 STARLINK-4580,1 53579U 22101BE  22318.91667824 -.01147338  00000-0 -68936-1 0  9996,2 53579  53.2171  89.1093 0001562  44.3547   1.2149 15.13417330  1300,6903.925,95.149,526.868,524.711,0.0
53579.0,STARLINK-4580,PAYLOAD,2022-11-15 00:00:02,15.132130599999998,0.0001728,53.2172,88.73200000000001,47.1483,92.7264,-0.06928,-0.01146536,0.0,0 STARLINK-4580,1 53579U 22101BE  22319.00002315 -.01146536  00000-0 -69280-1 0  9997,2 53579  53.2172  88.7320 0001728  47.1483  92.7264 15.13213060 13673,6904.545999999999,95.162,527.604,525.2180000000002,0.0
53579.0,STARLINK-4580,PAYLOAD,2022-11-15 14:00:01,15.11801674,0.0001549,53.2174,86.0988,53.9893,23.7937,-0.07328,-0.01164051,0.0,0 STARLINK-4580,1 53579U 22101BE  22319.58334491 -.01164051  00000-0 -73280-1 0  9990,2 53579  53.2174  86.0988 0001549  53.9893  23.7937 15.11801674  1307,6908.843000000003,95.251,531.778,529.637,0.0
53579.0,STARLINK-4580,PAYLOAD,2022-11-15 22:00:00,15.10974928,0.000156,53.2171,84.5967,51.1346,41.2971,-0.073683,-0.01145314,0.0,0 STARLINK-4580,1 53579U 22101BE  22319.91667824 -.01145314  00000-0 -73683-1 0  9994,2 53579  53.2171  84.5967 0001560  51.1346  41.2971 15.10974928 13814,6911.361999999999,95.303,534.306,532.149,0.0
53579.0,STARLINK-4580,PAYLOAD,2022-11-16 14:00:01,15.09229772,0.0001541999999999,53.2174,81.5978,64.1468,54.7119,-0.033067,-0.00501643,0.0,0 STARLINK-4580,1 53579U 22101BE  22320.58335648 -.00501643  00000-0 -33067-1 0  9997,2 53579  53.2174  81.5978 0001542  64.1468  54.7119 15.09229772 13917,6916.689,95.413,539.621,537.488,0.0
53579.0,STARLINK-4580,PAYLOAD,2022-11-16 20:00:01,15.08839279,0.000151,53.2172,80.4754,60.8582,336.8821,-0.00026252,-4.463e-05,0.0,0 STARLINK-4580,1 53579U 22101BE  22320.83334491 -.00004463  00000-0 -26252-3 0  9998,2 53579  53.2172  80.4754 0001510  60.8582 336.8821 15.08839279 13956,6917.8830000000025,95.438,540.7919999999998,538.703,0.0
53579.0,STARLINK-4580,PAYLOAD,2022-11-16 22:00:08,15.08836581,0.0001535,53.2172,80.1005,57.2542,73.8255,5.6394e-05,6.1e-06,0.0,0 STARLINK-4580,1 53579U 22101BE  22320.91675926  .00000610  00000-0  56394-4 0  9997,2 53579  53.2172  80.1005 0001535  57.2542  73.8255 15.08836581  1303,6917.891,95.438,540.818,538.694,0.0
53579.0,STARLINK-4580,PAYLOAD,2022-11-17 14:00:01,15.08876589,0.000158,53.2173,77.1096,44.4164,109.4344,-0.00492,-0.00077823,0.0,0 STARLINK-4580,1 53579U 22101BE  22321.58334491 -.00077823  00000-0 -49200-2 0  9998,2 53579  53.2173  77.1096 0001580  44.4164 109.4344 15.08876589 14062,6917.769,95.435,540.727,538.5409999999998,0.0
53579.0,STARLINK-4580,PAYLOAD,2022-11-17 22:00:00,15.08848877,0.000169,53.217,75.6129,45.2006,120.2523,-0.0031644,-0.00050311,0.0,0 STARLINK-4580,1 53579U 22101BE  22321.91667824 -.00050311  00000-0 -31644-2 0  9990,2 53579  53.2170  75.6129 0001690  45.2006 120.2523 15.08848877  1307,6917.853,95.437,540.887,538.549,0.0
53579.0,STARLINK-4580,PAYLOAD,2022-11-18 06:00:00,15.0879264,0.0001585999999999,53.2172,74.1153,53.4719,123.5719,0.0028355,0.00045069,0.0,0 STARLINK-4580,1 53579U 22101BE  22322.25001157  .00045069  00000-0  28355-2 0  9996,2 53579  53.2172  74.1153 0001586  53.4719 123.5719 15.08792640 14163,6918.025,95.441,540.987,538.793,0.0
53579.0,STARLINK-4580,PAYLOAD,2022-11-18 14:00:01,15.08815477,0.0001748,53.2171,72.6206,48.9623,139.6327,-0.00035414,-5.916e-05,0.0,0 STARLINK-4580,1 53579U 22101BE  22322.58334491 -.00005916  00000-0 -35414-3 0  9996,2 53579  53.2171  72.6206 0001748  48.9623 139.6327 15.08815477  1306,6917.955,95.439,541.03,538.611,0.0
53579.0,STARLINK-4580,PAYLOAD,2022-11-18 22:00:00,15.08837594,0.0001739,53.2168,71.1238,47.6576,152.4998,-0.00097396,-0.00015754,0.0,0 STARLINK-4580,1 53579U 22101BE  22322.91667824 -.00015754  00000-0 -97396-3 0  9990,2 53579  53.2168  71.1238 0001739  47.6576 152.4998 15.08837594 14264,6917.888000000001,95.438,540.956,538.55,0.0
53579.0,STARLINK-4580,PAYLOAD,2022-11-19 14:00:01,15.08843448,0.0001793,53.2169,68.1317,48.654,174.6837,0.00026223,3.888e-05,0.0,0 STARLINK-4580,1 53579U 22101BE  22323.58334491  .00003888  00000-0  26223-3 0  9999,2 53579  53.2169  68.1317 0001793  48.6540 174.6837 15.08843448  1305,6917.87,95.437,540.975,538.494,0.0
53579.0,STARLINK-4580,PAYLOAD,2022-11-19 16:00:00,15.08832164,0.000183,53.217,67.7579,47.7151,268.5256,0.0021833,0.00034623,0.0,0 STARLINK-4580,1 53579U 22101BE  22323.66667824  .00034623  00000-0  21833-2 0  9999,2 53579  53.2170  67.7579 0001830  47.7151 268.5256 15.08832164 14385,6917.904,95.438,541.035,538.503,0.0
53579.0,STARLINK-4580,PAYLOAD,2022-11-19 22:00:00,15.08884273,0.0001719,53.2167,66.6347,46.72,188.2137,-0.0039038,-0.00061958,0.0,0 STARLINK-4580,1 53579U 22101BE  22323.91667824 -.00061958  00000-0 -39038-2 0  9996,2 53579  53.2167  66.6347 0001719  46.7200 188.2137 15.08884273  1304,6917.745,95.435,540.799,538.4209999999998,0.0
53579.0,STARLINK-4580,PAYLOAD,2022-11-20 06:00:00,15.08822501,0.0001576999999999,53.2168,65.1371,51.2622,195.2974,0.0023014,0.00036511,0.0,0 STARLINK-4580,1 53579U 22101BE  22324.25001157  .00036511  00000-0  23014-2 0  9997,2 53579  53.2168  65.1371 0001577  51.2622 195.2974 15.08822501 14461,6917.934,95.439,540.89,538.7080000000002,0.0
